<?xml version='1.0' encoding='UTF-8'?>
<kml xmlns="http://www.opengis.net/kml/2.2" xmlns:gx="http://www.google.com/kml/ext/2.2">
  <Document>
    <name>JAXA S-520 観測ロケット — 内之浦宇宙空間観測所</name>
    <open>1</open>
    <description>JAXA S-520 Sounding Rocket Simulation
内之浦宇宙空間観測所 (Uchinoura Space Center)
Date: 2026-03-13 10:00 JST
Apogee: 79.9 km
Max Speed: 1679 m/s (Mach 5.7)
Flight Time: 273 s</description>
    <Style id="s_powered">
      <LineStyle>
        <color>ff0000ff</color>
        <width>5</width>
      </LineStyle>
      <PolyStyle>
        <color>ffffffff</color>
        <fill>1</fill>
      </PolyStyle>
    </Style>
    <Style id="s_coast_up">
      <LineStyle>
        <color>ff00a5ff</color>
        <width>4</width>
      </LineStyle>
      <PolyStyle>
        <color>ffffffff</color>
        <fill>1</fill>
      </PolyStyle>
    </Style>
    <Style id="s_coast_down">
      <LineStyle>
        <color>ffffcc00</color>
        <width>3.5</width>
      </LineStyle>
      <PolyStyle>
        <color>ffffffff</color>
        <fill>1</fill>
      </PolyStyle>
    </Style>
    <Style id="s_terminal">
      <LineStyle>
        <color>ff00ff00</color>
        <width>3</width>
      </LineStyle>
      <PolyStyle>
        <color>ffffffff</color>
        <fill>1</fill>
      </PolyStyle>
    </Style>
    <Style id="i_launch">
      <IconStyle>
        <color>ff0000ff</color>
        <scale>1.6</scale>
        <Icon>
          <href>https://maps.google.com/mapfiles/kml/shapes/triangle.png</href>
        </Icon>
      </IconStyle>
      <LabelStyle>
        <scale>1.2</scale>
      </LabelStyle>
    </Style>
    <Style id="i_apogee">
      <IconStyle>
        <color>ff00ffff</color>
        <scale>1.5</scale>
        <Icon>
          <href>https://maps.google.com/mapfiles/kml/shapes/star.png</href>
        </Icon>
      </IconStyle>
      <LabelStyle>
        <scale>1.2</scale>
      </LabelStyle>
    </Style>
    <Style id="i_impact">
      <IconStyle>
        <color>ff0000ff</color>
        <scale>1.4</scale>
        <Icon>
          <href>https://maps.google.com/mapfiles/kml/shapes/cross-hairs.png</href>
        </Icon>
      </IconStyle>
      <LabelStyle>
        <scale>1.2</scale>
      </LabelStyle>
    </Style>
    <Style id="i_burnout">
      <IconStyle>
        <color>ff00a5ff</color>
        <scale>1.2</scale>
        <Icon>
          <href>https://maps.google.com/mapfiles/kml/paddle/orange-circle.png</href>
        </Icon>
      </IconStyle>
      <LabelStyle>
        <scale>1.2</scale>
      </LabelStyle>
    </Style>
    <LookAt>
      <longitude>131.1821</longitude>
      <latitude>31.201</latitude>
      <altitude>26721</altitude>
      <heading>131</heading>
      <tilt>70</tilt>
      <range>120245</range>
      <altitudeMode>absolute</altitudeMode>
    </LookAt>
    <Folder>
      <name>飛行フェーズ (Trajectory Phases)</name>
      <open>1</open>
      <Placemark>
        <name>Phase 1: 推進飛行 (Powered Flight, 143kN)</name>
        <styleUrl>#s_powered</styleUrl>
        <description>Time: T+0 - T+30 s
Max altitude: 25.2 km
Max speed: 1661 m/s (Mach 4.8)</description>
        <LineString>
          <extrude>1</extrude>
          <tessellate>1</tessellate>
          <altitudeMode>absolute</altitudeMode>
          <coordinates>131.08210000,31.25100000,0.0 131.08211507,31.25098880,10.8 131.08220205,31.25092413,67.9 131.08238417,31.25078864,181.5 131.08267872,31.25056939,354.6 131.08309920,31.25025618,589.3 131.08365097,31.24984478,886.7 131.08434030,31.24933031,1247.8 131.08517243,31.24870870,1673.4 131.08615187,31.24797639,2164.2 131.08728210,31.24713061,2720.6 131.08856612,31.24616891,3342.8 131.09000682,31.24508898,4031.1 131.09160715,31.24388843,4786.0 131.09337060,31.24256449,5608.2 131.09530104,31.24111407,6498.8 131.09740283,31.23953376,7458.9 131.09968079,31.23781976,8490.1 131.10214025,31.23596796,9594.1 131.10478727,31.23397372,10773.1 131.10762904,31.23183164,12029.5 131.11067434,31.22953552,13366.7 131.11393177,31.22708074,14788.2 131.11739994,31.22447746,16298.1 131.12080710,31.22189810,17898.9 131.12356168,31.21994138,19402.1 131.12706500,31.21796765,20747.3 131.13144227,31.21570827,21959.4 131.13663855,31.21299830,23126.3 131.14154576,31.20979254,24311.0 131.14596928,31.20650246,25452.1</coordinates>
        </LineString>
      </Placemark>
      <Placemark>
        <name>Phase 2: 慣性上昇 (Coast to Apogee)</name>
        <styleUrl>#s_coast_up</styleUrl>
        <description>Time: T+30 - T+137 s
Max altitude: 79.7 km
Max speed: 1247 m/s (Mach 3.6)</description>
        <LineString>
          <extrude>1</extrude>
          <tessellate>1</tessellate>
          <altitudeMode>absolute</altitudeMode>
          <coordinates>131.14596928,31.20650246,25452.1 131.15020294,31.20321934,26564.0 131.15435360,31.20004668,27656.3 131.15842389,31.19700119,28721.7 131.16248696,31.19402367,29771.0 131.16656940,31.19105638,30799.5 131.17065209,31.18810239,31805.7 131.17473874,31.18513755,32796.7 131.17878093,31.18216189,33773.7 131.18277106,31.17918831,34734.9 131.18672267,31.17621071,35683.2 131.19065144,31.17324378,36621.0 131.19455802,31.17030174,37546.8 131.19844179,31.16738158,38460.0 131.20231028,31.16447837,39362.3 131.20617817,31.16158583,40254.3 131.21004795,31.15870282,41134.9 131.21391345,31.15582976,42003.6 131.21777618,31.15296602,42860.9 131.22164057,31.15010793,43707.7 131.22550649,31.14724973,44544.1 131.22937051,31.14439069,45369.8 131.23323017,31.14153330,46184.7 131.23708643,31.13867782,46988.7 131.24094193,31.13582274,47782.4 131.24479665,31.13296634,48566.1 131.24864820,31.13010811,49339.8 131.25249522,31.12724924,50103.3 131.25633784,31.12439094,50856.7 131.26017692,31.12153294,51599.9 131.26401367,31.11867421,52333.1 131.26784835,31.11581431,53056.5 131.27168009,31.11295354,53770.1 131.27550821,31.11009253,54474.0 131.27933288,31.10723183,55168.1 131.28315447,31.10437148,55852.2 131.28697343,31.10151093,56526.6 131.29079026,31.09864973,57191.2 131.29460500,31.09578796,57846.2 131.29841737,31.09292597,58491.6 131.30222724,31.09006407,59127.2 131.30603474,31.08720240,59753.2 131.30984006,31.08434087,60369.5 131.31364339,31.08147920,60976.1 131.31744497,31.07861715,61573.1 131.32124490,31.07575477,62160.5 131.32504313,31.07289226,62738.4 131.32883958,31.07002976,63306.6 131.33263434,31.06716734,63865.2 131.33642748,31.06430495,64414.2 131.34021909,31.06144246,64953.6 131.34400927,31.05857972,65483.3 131.34779815,31.05571672,66003.6 131.35158572,31.05285354,66514.3 131.35537197,31.04999029,67015.4 131.35915692,31.04712699,67506.9 131.36294060,31.04426364,67988.9 131.36672307,31.04140018,68461.2 131.37050437,31.03853653,68924.1 131.37428458,31.03567264,69377.4 131.37806373,31.03280855,69821.1 131.38184183,31.02994431,70255.3 131.38561889,31.02707994,70679.9 131.38939492,31.02421546,71095.0 131.39316995,31.02135084,71500.6 131.39694401,31.01848606,71896.6 131.40071714,31.01562105,72283.0 131.40448939,31.01275583,72660.0 131.40826075,31.00989041,73027.4 131.41203126,31.00702482,73385.3 131.41580091,31.00415907,73733.6 131.41956972,31.00129316,74072.4 131.42333773,30.99842708,74401.7 131.42710494,30.99556079,74721.4 131.43087138,30.99269429,75031.6 131.43463709,30.98982756,75332.3 131.43840206,30.98696064,75623.5 131.44216632,30.98409353,75905.1 131.44592988,30.98122623,76177.3 131.44969275,30.97835875,76439.9 131.45345494,30.97549108,76692.9 131.45721649,30.97262319,76936.5 131.46097740,30.96975508,77170.5 131.46473770,30.96688675,77395.1 131.46849739,30.96401821,77610.1 131.47225649,30.96114948,77815.6 131.47601501,30.95828055,78011.6 131.47977297,30.95541143,78198.0 131.48353039,30.95254209,78375.0 131.48728726,30.94967254,78542.4 131.49104362,30.94680277,78700.3 131.49479948,30.94393278,78848.8 131.49855485,30.94106258,78987.7 131.50230974,30.93819218,79117.1 131.50606417,30.93532158,79236.9 131.50981814,30.93245077,79347.3 131.51357168,30.92957976,79448.2 131.51732479,30.92670852,79539.5 131.52107750,30.92383707,79621.4 131.52482981,30.92096540,79693.7 131.52858173,30.91809351,79756.5 131.53233328,30.91522143,79809.8 131.53608447,30.91234914,79853.7 131.53983531,30.90947666,79888.0 131.54358582,30.90660396,79912.7 131.54733601,30.90373104,79928.0 131.55108590,30.90085791,79933.8 131.55483548,30.89798457,79930.1</coordinates>
        </LineString>
      </Placemark>
      <Placemark>
        <name>Phase 3: 自由落下 (Free Fall Descent)</name>
        <styleUrl>#s_coast_down</styleUrl>
        <description>Time: T+137 - T+233 s
Max altitude: 79.7 km
Max speed: 989 m/s (Mach 2.9)</description>
        <LineString>
          <extrude>1</extrude>
          <tessellate>1</tessellate>
          <altitudeMode>absolute</altitudeMode>
          <coordinates>131.55483548,30.89798457,79930.1 131.55858478,30.89511102,79916.8 131.56233381,30.89223727,79894.1 131.56608259,30.88936333,79861.8 131.56983111,30.88648919,79820.1 131.57357940,30.88361484,79768.8 131.57732747,30.88074028,79708.0 131.58107533,30.87786552,79637.7 131.58482298,30.87499055,79558.0 131.58857045,30.87211538,79468.7 131.59231774,30.86924003,79369.8 131.59606486,30.86636449,79261.5 131.59981184,30.86348877,79143.7 131.60355868,30.86061285,79016.3 131.60730538,30.85773674,78879.5 131.61105197,30.85486043,78733.1 131.61479844,30.85198393,78577.3 131.61854481,30.84910726,78411.9 131.62229109,30.84623042,78237.0 131.62603730,30.84335342,78052.6 131.62978345,30.84047626,77858.7 131.63352954,30.83759893,77655.3 131.63727559,30.83472142,77442.3 131.64102160,30.83184374,77219.9 131.64476757,30.82896591,76987.9 131.64851352,30.82608793,76746.4 131.65225945,30.82320983,76495.4 131.65600540,30.82033161,76234.9 131.65975137,30.81745328,75964.9 131.66349736,30.81457482,75685.3 131.66724337,30.81169624,75396.2 131.67098941,30.80881753,75097.7 131.67473546,30.80593872,74789.6 131.67848154,30.80305983,74471.9 131.68222766,30.80018090,74144.8 131.68597386,30.79730195,73808.1 131.68972015,30.79442297,73461.9 131.69346650,30.79154395,73106.2 131.69721292,30.78866489,72740.9 131.70095938,30.78578581,72366.2 131.70470586,30.78290673,71981.9 131.70845236,30.78002771,71588.1 131.71219892,30.77714880,71184.7 131.71594556,30.77427004,70771.8 131.71969229,30.77139143,70349.4 131.72343908,30.76851297,69917.5 131.72718590,30.76563464,69476.0 131.73093269,30.76275648,69025.1 131.73467939,30.75987853,68564.5 131.73842594,30.75700086,68094.5 131.74217237,30.75412358,67614.9 131.74591871,30.75124677,67125.7 131.74966498,30.74837048,66627.1 131.75341112,30.74549469,66118.8 131.75715702,30.74261939,65601.1 131.76090256,30.73974457,65073.9 131.76464754,30.73687027,64537.1 131.76839176,30.73399656,63990.7 131.77213508,30.73112355,63434.9 131.77587744,30.72825144,62869.4 131.77961882,30.72538035,62294.4 131.78335913,30.72251029,61709.9 131.78709819,30.71964117,61115.8 131.79083578,30.71677286,60512.3 131.79457155,30.71390521,59899.3 131.79830505,30.71103800,59276.8 131.80203576,30.70817098,58644.8 131.80576318,30.70530397,58003.4 131.80948693,30.70243689,57352.4 131.81320681,30.69956971,56692.1 131.81692288,30.69670237,56022.4 131.82063539,30.69383473,55343.4 131.82434473,30.69096666,54655.2 131.82805127,30.68809797,53957.9 131.83175543,30.68522832,53251.6 131.83545787,30.68235734,52536.4 131.83915939,30.67948484,51812.4 131.84286082,30.67661104,51079.6 131.84656267,30.67373682,50338.3 131.85026492,30.67086359,49588.3 131.85396694,30.66799283,48829.8 131.85766780,30.66512576,48062.7 131.86136671,30.66226351,47287.1 131.86506293,30.65940765,46503.0 131.86875515,30.65656010,45710.5 131.87244120,30.65372206,44909.7 131.87611897,30.65089305,44100.7 131.87978796,30.64807138,43283.8 131.88344932,30.64525612,42459.1 131.88710321,30.64244803,41626.9 131.89074759,30.63964793,40787.5 131.89438054,30.63685636,39941.4 131.89800056,30.63407538,39088.6 131.90160357,30.63130657,38229.1 131.90518465,30.62854707,37363.1 131.90874328,30.62579350,36491.4 131.91228253,30.62304522,35614.8</coordinates>
        </LineString>
      </Placemark>
      <Placemark>
        <name>Phase 4: 終端降下 (Terminal Descent → 太平洋着水)</name>
        <styleUrl>#s_terminal</styleUrl>
        <description>Time: T+233 - T+273 s
Max altitude: 35.4 km
Max speed: 1001 m/s (Mach 2.9)</description>
        <LineString>
          <extrude>1</extrude>
          <tessellate>1</tessellate>
          <altitudeMode>absolute</altitudeMode>
          <coordinates>131.91228253,30.62304522,35614.8 131.91581102,30.62030153,34734.1 131.91934146,30.61757037,33849.4 131.92287050,30.61487014,32960.8 131.92637802,30.61221325,32068.2 131.92983666,30.60959379,31170.7 131.93323033,30.60698129,30269.3 131.93658077,30.60435061,29367.0 131.93994114,30.60171094,28465.0 131.94332940,30.59912102,27562.6 131.94668559,30.59661592,26657.0 131.94993645,30.59414011,25747.7 131.95312135,30.59161832,24839.4 131.95635681,30.58909610,23933.9 131.95960338,30.58667834,23026.9 131.96271948,30.58429978,22115.8 131.96579982,30.58185820,21206.9 131.96895173,30.57947726,20299.4 131.97199381,30.57716992,19387.0 131.97500560,30.57480269,18476.1 131.97805233,30.57251382,17564.2 131.98099595,30.57022737,16649.3 131.98397864,30.56795691,15735.3 131.98688364,30.56571902,14818.6 131.98979913,30.56349809,13902.8 131.99265574,30.56129720,12986.8 131.99549370,30.55913377,12072.3 131.99829297,30.55699040,11160.9 132.00104538,30.55488214,10253.7 132.00375317,30.55281186,9352.7 132.00641114,30.55078051,8459.3 132.00901431,30.54879141,7575.0 132.01155865,30.54684786,6701.6 132.01404041,30.54495282,5840.4 132.01645602,30.54310898,4993.0 132.01880227,30.54131874,4160.7 132.02107637,30.53958420,3344.8 132.02327596,30.53790714,2546.5 132.02539916,30.53628893,1766.8 132.02744464,30.53473058,1006.5 132.02941156,30.53323266,266.2 132.03011283,30.53269875,-0.0</coordinates>
        </LineString>
      </Placemark>
    </Folder>
    <Folder>
      <name>主要イベント (Key Events)</name>
      <open>1</open>
      <Placemark>
        <name>内之浦宇宙空間観測所</name>
        <styleUrl>#i_launch</styleUrl>
        <description>Uchinoura Space Center (USC)
JAXA / ISAS
31.251°N, 131.0821°E, 230m ASL
日本の観測ロケット発射場
S-520 series launched here since 1980</description>
        <Point>
          <altitudeMode>absolute</altitudeMode>
          <coordinates>131.0821,31.251,230</coordinates>
        </Point>
      </Placemark>
      <Placemark>
        <name>燃焼終了 (Burnout): 24.1 km</name>
        <styleUrl>#i_burnout</styleUrl>
        <description>Motor burnout at T+29.5 s
Altitude: 24.1 km
Speed: 1298 m/s</description>
        <Point>
          <altitudeMode>absolute</altitudeMode>
          <coordinates>131.14154576,31.20979254,24311.0</coordinates>
        </Point>
      </Placemark>
      <Placemark>
        <name>最高到達点: 79.9 km</name>
        <styleUrl>#i_apogee</styleUrl>
        <description>Apogee at T+136 s
Altitude: 79.9 km AGL (80.2 km ASL)
カーマンライン (100km) 未到達
微小重力環境: ~3.6 min</description>
        <Point>
          <altitudeMode>absolute</altitudeMode>
          <coordinates>131.55108590,30.90085791,80163.9</coordinates>
        </Point>
      </Placemark>
      <Placemark>
        <name>着水点: 120 km downrange</name>
        <styleUrl>#i_impact</styleUrl>
        <description>Pacific Ocean splashdown
T+273 s
Distance: 120.4 km from launch site
Impact velocity: 723 m/s
太平洋上に着水 — 回収なし (expendable)</description>
        <Point>
          <altitudeMode>clampToGround</altitudeMode>
          <coordinates>132.03011283,30.53269875,0</coordinates>
        </Point>
      </Placemark>
    </Folder>
    <Folder>
      <name>アニメーション (Time Animation)</name>
      <open>0</open>
      <Placemark>
        <name>S-520 Position</name>
        <Style>
          <IconStyle>
            <scale>1.3</scale>
            <Icon>
              <href>https://maps.google.com/mapfiles/kml/shapes/rocket.png</href>
            </Icon>
          </IconStyle>
        </Style>
        <gx:Track>
          <altitudeMode>absolute</altitudeMode>
          <when>2026-03-13T01:00:00Z</when>
          <when>2026-03-13T01:00:01Z</when>
          <when>2026-03-13T01:00:02Z</when>
          <when>2026-03-13T01:00:03Z</when>
          <when>2026-03-13T01:00:04Z</when>
          <when>2026-03-13T01:00:05Z</when>
          <when>2026-03-13T01:00:06Z</when>
          <when>2026-03-13T01:00:07Z</when>
          <when>2026-03-13T01:00:08Z</when>
          <when>2026-03-13T01:00:09Z</when>
          <when>2026-03-13T01:00:10Z</when>
          <when>2026-03-13T01:00:11Z</when>
          <when>2026-03-13T01:00:12Z</when>
          <when>2026-03-13T01:00:13Z</when>
          <when>2026-03-13T01:00:14Z</when>
          <when>2026-03-13T01:00:15Z</when>
          <when>2026-03-13T01:00:16Z</when>
          <when>2026-03-13T01:00:17Z</when>
          <when>2026-03-13T01:00:18Z</when>
          <when>2026-03-13T01:00:19Z</when>
          <when>2026-03-13T01:00:20Z</when>
          <when>2026-03-13T01:00:21Z</when>
          <when>2026-03-13T01:00:22Z</when>
          <when>2026-03-13T01:00:23Z</when>
          <when>2026-03-13T01:00:24Z</when>
          <when>2026-03-13T01:00:25Z</when>
          <when>2026-03-13T01:00:26Z</when>
          <when>2026-03-13T01:00:27Z</when>
          <when>2026-03-13T01:00:28Z</when>
          <when>2026-03-13T01:00:29Z</when>
          <when>2026-03-13T01:00:30Z</when>
          <when>2026-03-13T01:00:31Z</when>
          <when>2026-03-13T01:00:32Z</when>
          <when>2026-03-13T01:00:33Z</when>
          <when>2026-03-13T01:00:34Z</when>
          <when>2026-03-13T01:00:35Z</when>
          <when>2026-03-13T01:00:36Z</when>
          <when>2026-03-13T01:00:37Z</when>
          <when>2026-03-13T01:00:38Z</when>
          <when>2026-03-13T01:00:39Z</when>
          <when>2026-03-13T01:00:40Z</when>
          <when>2026-03-13T01:00:41Z</when>
          <when>2026-03-13T01:00:42Z</when>
          <when>2026-03-13T01:00:43Z</when>
          <when>2026-03-13T01:00:44Z</when>
          <when>2026-03-13T01:00:45Z</when>
          <when>2026-03-13T01:00:46Z</when>
          <when>2026-03-13T01:00:47Z</when>
          <when>2026-03-13T01:00:48Z</when>
          <when>2026-03-13T01:00:49Z</when>
          <when>2026-03-13T01:00:50Z</when>
          <when>2026-03-13T01:00:51Z</when>
          <when>2026-03-13T01:00:52Z</when>
          <when>2026-03-13T01:00:53Z</when>
          <when>2026-03-13T01:00:54Z</when>
          <when>2026-03-13T01:00:55Z</when>
          <when>2026-03-13T01:00:56Z</when>
          <when>2026-03-13T01:00:57Z</when>
          <when>2026-03-13T01:00:58Z</when>
          <when>2026-03-13T01:00:59Z</when>
          <when>2026-03-13T01:01:00Z</when>
          <when>2026-03-13T01:01:01Z</when>
          <when>2026-03-13T01:01:02Z</when>
          <when>2026-03-13T01:01:03Z</when>
          <when>2026-03-13T01:01:04Z</when>
          <when>2026-03-13T01:01:05Z</when>
          <when>2026-03-13T01:01:06Z</when>
          <when>2026-03-13T01:01:07Z</when>
          <when>2026-03-13T01:01:08Z</when>
          <when>2026-03-13T01:01:09Z</when>
          <when>2026-03-13T01:01:10Z</when>
          <when>2026-03-13T01:01:11Z</when>
          <when>2026-03-13T01:01:12Z</when>
          <when>2026-03-13T01:01:13Z</when>
          <when>2026-03-13T01:01:14Z</when>
          <when>2026-03-13T01:01:15Z</when>
          <when>2026-03-13T01:01:16Z</when>
          <when>2026-03-13T01:01:17Z</when>
          <when>2026-03-13T01:01:18Z</when>
          <when>2026-03-13T01:01:19Z</when>
          <when>2026-03-13T01:01:20Z</when>
          <when>2026-03-13T01:01:21Z</when>
          <when>2026-03-13T01:01:22Z</when>
          <when>2026-03-13T01:01:23Z</when>
          <when>2026-03-13T01:01:24Z</when>
          <when>2026-03-13T01:01:25Z</when>
          <when>2026-03-13T01:01:26Z</when>
          <when>2026-03-13T01:01:27Z</when>
          <when>2026-03-13T01:01:28Z</when>
          <when>2026-03-13T01:01:29Z</when>
          <when>2026-03-13T01:01:30Z</when>
          <when>2026-03-13T01:01:31Z</when>
          <when>2026-03-13T01:01:32Z</when>
          <when>2026-03-13T01:01:33Z</when>
          <when>2026-03-13T01:01:34Z</when>
          <when>2026-03-13T01:01:35Z</when>
          <when>2026-03-13T01:01:36Z</when>
          <when>2026-03-13T01:01:37Z</when>
          <when>2026-03-13T01:01:38Z</when>
          <when>2026-03-13T01:01:39Z</when>
          <when>2026-03-13T01:01:40Z</when>
          <when>2026-03-13T01:01:41Z</when>
          <when>2026-03-13T01:01:42Z</when>
          <when>2026-03-13T01:01:43Z</when>
          <when>2026-03-13T01:01:44Z</when>
          <when>2026-03-13T01:01:45Z</when>
          <when>2026-03-13T01:01:46Z</when>
          <when>2026-03-13T01:01:47Z</when>
          <when>2026-03-13T01:01:48Z</when>
          <when>2026-03-13T01:01:49Z</when>
          <when>2026-03-13T01:01:50Z</when>
          <when>2026-03-13T01:01:51Z</when>
          <when>2026-03-13T01:01:52Z</when>
          <when>2026-03-13T01:01:53Z</when>
          <when>2026-03-13T01:01:54Z</when>
          <when>2026-03-13T01:01:55Z</when>
          <when>2026-03-13T01:01:56Z</when>
          <when>2026-03-13T01:01:57Z</when>
          <when>2026-03-13T01:01:58Z</when>
          <when>2026-03-13T01:01:59Z</when>
          <when>2026-03-13T01:02:00Z</when>
          <when>2026-03-13T01:02:01Z</when>
          <when>2026-03-13T01:02:02Z</when>
          <when>2026-03-13T01:02:03Z</when>
          <when>2026-03-13T01:02:04Z</when>
          <when>2026-03-13T01:02:05Z</when>
          <when>2026-03-13T01:02:06Z</when>
          <when>2026-03-13T01:02:07Z</when>
          <when>2026-03-13T01:02:08Z</when>
          <when>2026-03-13T01:02:09Z</when>
          <when>2026-03-13T01:02:10Z</when>
          <when>2026-03-13T01:02:11Z</when>
          <when>2026-03-13T01:02:12Z</when>
          <when>2026-03-13T01:02:13Z</when>
          <when>2026-03-13T01:02:14Z</when>
          <when>2026-03-13T01:02:15Z</when>
          <when>2026-03-13T01:02:16Z</when>
          <when>2026-03-13T01:02:17Z</when>
          <when>2026-03-13T01:02:18Z</when>
          <when>2026-03-13T01:02:19Z</when>
          <when>2026-03-13T01:02:20Z</when>
          <when>2026-03-13T01:02:21Z</when>
          <when>2026-03-13T01:02:22Z</when>
          <when>2026-03-13T01:02:23Z</when>
          <when>2026-03-13T01:02:24Z</when>
          <when>2026-03-13T01:02:25Z</when>
          <when>2026-03-13T01:02:26Z</when>
          <when>2026-03-13T01:02:27Z</when>
          <when>2026-03-13T01:02:28Z</when>
          <when>2026-03-13T01:02:29Z</when>
          <when>2026-03-13T01:02:30Z</when>
          <when>2026-03-13T01:02:31Z</when>
          <when>2026-03-13T01:02:32Z</when>
          <when>2026-03-13T01:02:33Z</when>
          <when>2026-03-13T01:02:34Z</when>
          <when>2026-03-13T01:02:35Z</when>
          <when>2026-03-13T01:02:36Z</when>
          <when>2026-03-13T01:02:37Z</when>
          <when>2026-03-13T01:02:38Z</when>
          <when>2026-03-13T01:02:39Z</when>
          <when>2026-03-13T01:02:40Z</when>
          <when>2026-03-13T01:02:41Z</when>
          <when>2026-03-13T01:02:42Z</when>
          <when>2026-03-13T01:02:43Z</when>
          <when>2026-03-13T01:02:44Z</when>
          <when>2026-03-13T01:02:45Z</when>
          <when>2026-03-13T01:02:46Z</when>
          <when>2026-03-13T01:02:47Z</when>
          <when>2026-03-13T01:02:48Z</when>
          <when>2026-03-13T01:02:49Z</when>
          <when>2026-03-13T01:02:50Z</when>
          <when>2026-03-13T01:02:51Z</when>
          <when>2026-03-13T01:02:52Z</when>
          <when>2026-03-13T01:02:53Z</when>
          <when>2026-03-13T01:02:54Z</when>
          <when>2026-03-13T01:02:55Z</when>
          <when>2026-03-13T01:02:56Z</when>
          <when>2026-03-13T01:02:57Z</when>
          <when>2026-03-13T01:02:58Z</when>
          <when>2026-03-13T01:02:59Z</when>
          <when>2026-03-13T01:03:00Z</when>
          <when>2026-03-13T01:03:01Z</when>
          <when>2026-03-13T01:03:02Z</when>
          <when>2026-03-13T01:03:03Z</when>
          <when>2026-03-13T01:03:04Z</when>
          <when>2026-03-13T01:03:05Z</when>
          <when>2026-03-13T01:03:06Z</when>
          <when>2026-03-13T01:03:07Z</when>
          <when>2026-03-13T01:03:08Z</when>
          <when>2026-03-13T01:03:09Z</when>
          <when>2026-03-13T01:03:10Z</when>
          <when>2026-03-13T01:03:11Z</when>
          <when>2026-03-13T01:03:12Z</when>
          <when>2026-03-13T01:03:13Z</when>
          <when>2026-03-13T01:03:14Z</when>
          <when>2026-03-13T01:03:15Z</when>
          <when>2026-03-13T01:03:16Z</when>
          <when>2026-03-13T01:03:17Z</when>
          <when>2026-03-13T01:03:18Z</when>
          <when>2026-03-13T01:03:19Z</when>
          <when>2026-03-13T01:03:20Z</when>
          <when>2026-03-13T01:03:21Z</when>
          <when>2026-03-13T01:03:22Z</when>
          <when>2026-03-13T01:03:23Z</when>
          <when>2026-03-13T01:03:24Z</when>
          <when>2026-03-13T01:03:25Z</when>
          <when>2026-03-13T01:03:26Z</when>
          <when>2026-03-13T01:03:27Z</when>
          <when>2026-03-13T01:03:28Z</when>
          <when>2026-03-13T01:03:29Z</when>
          <when>2026-03-13T01:03:30Z</when>
          <when>2026-03-13T01:03:31Z</when>
          <when>2026-03-13T01:03:32Z</when>
          <when>2026-03-13T01:03:33Z</when>
          <when>2026-03-13T01:03:34Z</when>
          <when>2026-03-13T01:03:35Z</when>
          <when>2026-03-13T01:03:36Z</when>
          <when>2026-03-13T01:03:37Z</when>
          <when>2026-03-13T01:03:38Z</when>
          <when>2026-03-13T01:03:39Z</when>
          <when>2026-03-13T01:03:40Z</when>
          <when>2026-03-13T01:03:41Z</when>
          <when>2026-03-13T01:03:42Z</when>
          <when>2026-03-13T01:03:43Z</when>
          <when>2026-03-13T01:03:44Z</when>
          <when>2026-03-13T01:03:45Z</when>
          <when>2026-03-13T01:03:46Z</when>
          <when>2026-03-13T01:03:47Z</when>
          <when>2026-03-13T01:03:48Z</when>
          <when>2026-03-13T01:03:49Z</when>
          <when>2026-03-13T01:03:50Z</when>
          <when>2026-03-13T01:03:51Z</when>
          <when>2026-03-13T01:03:52Z</when>
          <when>2026-03-13T01:03:53Z</when>
          <when>2026-03-13T01:03:54Z</when>
          <when>2026-03-13T01:03:55Z</when>
          <when>2026-03-13T01:03:56Z</when>
          <when>2026-03-13T01:03:57Z</when>
          <when>2026-03-13T01:03:58Z</when>
          <when>2026-03-13T01:03:59Z</when>
          <when>2026-03-13T01:04:00Z</when>
          <when>2026-03-13T01:04:01Z</when>
          <when>2026-03-13T01:04:02Z</when>
          <when>2026-03-13T01:04:03Z</when>
          <when>2026-03-13T01:04:04Z</when>
          <when>2026-03-13T01:04:05Z</when>
          <when>2026-03-13T01:04:06Z</when>
          <when>2026-03-13T01:04:07Z</when>
          <when>2026-03-13T01:04:08Z</when>
          <when>2026-03-13T01:04:09Z</when>
          <when>2026-03-13T01:04:10Z</when>
          <when>2026-03-13T01:04:11Z</when>
          <when>2026-03-13T01:04:12Z</when>
          <when>2026-03-13T01:04:13Z</when>
          <when>2026-03-13T01:04:14Z</when>
          <when>2026-03-13T01:04:15Z</when>
          <when>2026-03-13T01:04:16Z</when>
          <when>2026-03-13T01:04:17Z</when>
          <when>2026-03-13T01:04:18Z</when>
          <when>2026-03-13T01:04:19Z</when>
          <when>2026-03-13T01:04:20Z</when>
          <when>2026-03-13T01:04:21Z</when>
          <when>2026-03-13T01:04:22Z</when>
          <when>2026-03-13T01:04:23Z</when>
          <when>2026-03-13T01:04:24Z</when>
          <when>2026-03-13T01:04:25Z</when>
          <when>2026-03-13T01:04:26Z</when>
          <when>2026-03-13T01:04:27Z</when>
          <when>2026-03-13T01:04:28Z</when>
          <when>2026-03-13T01:04:29Z</when>
          <when>2026-03-13T01:04:30Z</when>
          <when>2026-03-13T01:04:31Z</when>
          <when>2026-03-13T01:04:32Z</when>
          <when>2026-03-13T01:04:33Z</when>
          <when>2026-03-13T01:04:33Z</when>
          <gx:coord>131.08210000 31.25100000 0.0</gx:coord>
          <gx:coord>131.08211507 31.25098880 10.8</gx:coord>
          <gx:coord>131.08220205 31.25092413 67.9</gx:coord>
          <gx:coord>131.08238417 31.25078864 181.5</gx:coord>
          <gx:coord>131.08267872 31.25056939 354.6</gx:coord>
          <gx:coord>131.08309920 31.25025618 589.3</gx:coord>
          <gx:coord>131.08365097 31.24984478 886.7</gx:coord>
          <gx:coord>131.08434030 31.24933031 1247.8</gx:coord>
          <gx:coord>131.08517243 31.24870870 1673.4</gx:coord>
          <gx:coord>131.08615187 31.24797639 2164.2</gx:coord>
          <gx:coord>131.08728210 31.24713061 2720.6</gx:coord>
          <gx:coord>131.08856612 31.24616891 3342.8</gx:coord>
          <gx:coord>131.09000682 31.24508898 4031.1</gx:coord>
          <gx:coord>131.09160715 31.24388843 4786.0</gx:coord>
          <gx:coord>131.09337060 31.24256449 5608.2</gx:coord>
          <gx:coord>131.09530104 31.24111407 6498.8</gx:coord>
          <gx:coord>131.09740283 31.23953376 7458.9</gx:coord>
          <gx:coord>131.09968079 31.23781976 8490.1</gx:coord>
          <gx:coord>131.10214025 31.23596796 9594.1</gx:coord>
          <gx:coord>131.10478727 31.23397372 10773.1</gx:coord>
          <gx:coord>131.10762904 31.23183164 12029.5</gx:coord>
          <gx:coord>131.11067434 31.22953552 13366.7</gx:coord>
          <gx:coord>131.11393177 31.22708074 14788.2</gx:coord>
          <gx:coord>131.11739994 31.22447746 16298.1</gx:coord>
          <gx:coord>131.12080710 31.22189810 17898.9</gx:coord>
          <gx:coord>131.12356168 31.21994138 19402.1</gx:coord>
          <gx:coord>131.12706500 31.21796765 20747.3</gx:coord>
          <gx:coord>131.13144227 31.21570827 21959.4</gx:coord>
          <gx:coord>131.13663855 31.21299830 23126.3</gx:coord>
          <gx:coord>131.14154576 31.20979254 24311.0</gx:coord>
          <gx:coord>131.14596928 31.20650246 25452.1</gx:coord>
          <gx:coord>131.15020294 31.20321934 26564.0</gx:coord>
          <gx:coord>131.15435360 31.20004668 27656.3</gx:coord>
          <gx:coord>131.15842389 31.19700119 28721.7</gx:coord>
          <gx:coord>131.16248696 31.19402367 29771.0</gx:coord>
          <gx:coord>131.16656940 31.19105638 30799.5</gx:coord>
          <gx:coord>131.17065209 31.18810239 31805.7</gx:coord>
          <gx:coord>131.17473874 31.18513755 32796.7</gx:coord>
          <gx:coord>131.17878093 31.18216189 33773.7</gx:coord>
          <gx:coord>131.18277106 31.17918831 34734.9</gx:coord>
          <gx:coord>131.18672267 31.17621071 35683.2</gx:coord>
          <gx:coord>131.19065144 31.17324378 36621.0</gx:coord>
          <gx:coord>131.19455802 31.17030174 37546.8</gx:coord>
          <gx:coord>131.19844179 31.16738158 38460.0</gx:coord>
          <gx:coord>131.20231028 31.16447837 39362.3</gx:coord>
          <gx:coord>131.20617817 31.16158583 40254.3</gx:coord>
          <gx:coord>131.21004795 31.15870282 41134.9</gx:coord>
          <gx:coord>131.21391345 31.15582976 42003.6</gx:coord>
          <gx:coord>131.21777618 31.15296602 42860.9</gx:coord>
          <gx:coord>131.22164057 31.15010793 43707.7</gx:coord>
          <gx:coord>131.22550649 31.14724973 44544.1</gx:coord>
          <gx:coord>131.22937051 31.14439069 45369.8</gx:coord>
          <gx:coord>131.23323017 31.14153330 46184.7</gx:coord>
          <gx:coord>131.23708643 31.13867782 46988.7</gx:coord>
          <gx:coord>131.24094193 31.13582274 47782.4</gx:coord>
          <gx:coord>131.24479665 31.13296634 48566.1</gx:coord>
          <gx:coord>131.24864820 31.13010811 49339.8</gx:coord>
          <gx:coord>131.25249522 31.12724924 50103.3</gx:coord>
          <gx:coord>131.25633784 31.12439094 50856.7</gx:coord>
          <gx:coord>131.26017692 31.12153294 51599.9</gx:coord>
          <gx:coord>131.26401367 31.11867421 52333.1</gx:coord>
          <gx:coord>131.26784835 31.11581431 53056.5</gx:coord>
          <gx:coord>131.27168009 31.11295354 53770.1</gx:coord>
          <gx:coord>131.27550821 31.11009253 54474.0</gx:coord>
          <gx:coord>131.27933288 31.10723183 55168.1</gx:coord>
          <gx:coord>131.28315447 31.10437148 55852.2</gx:coord>
          <gx:coord>131.28697343 31.10151093 56526.6</gx:coord>
          <gx:coord>131.29079026 31.09864973 57191.2</gx:coord>
          <gx:coord>131.29460500 31.09578796 57846.2</gx:coord>
          <gx:coord>131.29841737 31.09292597 58491.6</gx:coord>
          <gx:coord>131.30222724 31.09006407 59127.2</gx:coord>
          <gx:coord>131.30603474 31.08720240 59753.2</gx:coord>
          <gx:coord>131.30984006 31.08434087 60369.5</gx:coord>
          <gx:coord>131.31364339 31.08147920 60976.1</gx:coord>
          <gx:coord>131.31744497 31.07861715 61573.1</gx:coord>
          <gx:coord>131.32124490 31.07575477 62160.5</gx:coord>
          <gx:coord>131.32504313 31.07289226 62738.4</gx:coord>
          <gx:coord>131.32883958 31.07002976 63306.6</gx:coord>
          <gx:coord>131.33263434 31.06716734 63865.2</gx:coord>
          <gx:coord>131.33642748 31.06430495 64414.2</gx:coord>
          <gx:coord>131.34021909 31.06144246 64953.6</gx:coord>
          <gx:coord>131.34400927 31.05857972 65483.3</gx:coord>
          <gx:coord>131.34779815 31.05571672 66003.6</gx:coord>
          <gx:coord>131.35158572 31.05285354 66514.3</gx:coord>
          <gx:coord>131.35537197 31.04999029 67015.4</gx:coord>
          <gx:coord>131.35915692 31.04712699 67506.9</gx:coord>
          <gx:coord>131.36294060 31.04426364 67988.9</gx:coord>
          <gx:coord>131.36672307 31.04140018 68461.2</gx:coord>
          <gx:coord>131.37050437 31.03853653 68924.1</gx:coord>
          <gx:coord>131.37428458 31.03567264 69377.4</gx:coord>
          <gx:coord>131.37806373 31.03280855 69821.1</gx:coord>
          <gx:coord>131.38184183 31.02994431 70255.3</gx:coord>
          <gx:coord>131.38561889 31.02707994 70679.9</gx:coord>
          <gx:coord>131.38939492 31.02421546 71095.0</gx:coord>
          <gx:coord>131.39316995 31.02135084 71500.6</gx:coord>
          <gx:coord>131.39694401 31.01848606 71896.6</gx:coord>
          <gx:coord>131.40071714 31.01562105 72283.0</gx:coord>
          <gx:coord>131.40448939 31.01275583 72660.0</gx:coord>
          <gx:coord>131.40826075 31.00989041 73027.4</gx:coord>
          <gx:coord>131.41203126 31.00702482 73385.3</gx:coord>
          <gx:coord>131.41580091 31.00415907 73733.6</gx:coord>
          <gx:coord>131.41956972 31.00129316 74072.4</gx:coord>
          <gx:coord>131.42333773 30.99842708 74401.7</gx:coord>
          <gx:coord>131.42710494 30.99556079 74721.4</gx:coord>
          <gx:coord>131.43087138 30.99269429 75031.6</gx:coord>
          <gx:coord>131.43463709 30.98982756 75332.3</gx:coord>
          <gx:coord>131.43840206 30.98696064 75623.5</gx:coord>
          <gx:coord>131.44216632 30.98409353 75905.1</gx:coord>
          <gx:coord>131.44592988 30.98122623 76177.3</gx:coord>
          <gx:coord>131.44969275 30.97835875 76439.9</gx:coord>
          <gx:coord>131.45345494 30.97549108 76692.9</gx:coord>
          <gx:coord>131.45721649 30.97262319 76936.5</gx:coord>
          <gx:coord>131.46097740 30.96975508 77170.5</gx:coord>
          <gx:coord>131.46473770 30.96688675 77395.1</gx:coord>
          <gx:coord>131.46849739 30.96401821 77610.1</gx:coord>
          <gx:coord>131.47225649 30.96114948 77815.6</gx:coord>
          <gx:coord>131.47601501 30.95828055 78011.6</gx:coord>
          <gx:coord>131.47977297 30.95541143 78198.0</gx:coord>
          <gx:coord>131.48353039 30.95254209 78375.0</gx:coord>
          <gx:coord>131.48728726 30.94967254 78542.4</gx:coord>
          <gx:coord>131.49104362 30.94680277 78700.3</gx:coord>
          <gx:coord>131.49479948 30.94393278 78848.8</gx:coord>
          <gx:coord>131.49855485 30.94106258 78987.7</gx:coord>
          <gx:coord>131.50230974 30.93819218 79117.1</gx:coord>
          <gx:coord>131.50606417 30.93532158 79236.9</gx:coord>
          <gx:coord>131.50981814 30.93245077 79347.3</gx:coord>
          <gx:coord>131.51357168 30.92957976 79448.2</gx:coord>
          <gx:coord>131.51732479 30.92670852 79539.5</gx:coord>
          <gx:coord>131.52107750 30.92383707 79621.4</gx:coord>
          <gx:coord>131.52482981 30.92096540 79693.7</gx:coord>
          <gx:coord>131.52858173 30.91809351 79756.5</gx:coord>
          <gx:coord>131.53233328 30.91522143 79809.8</gx:coord>
          <gx:coord>131.53608447 30.91234914 79853.7</gx:coord>
          <gx:coord>131.53983531 30.90947666 79888.0</gx:coord>
          <gx:coord>131.54358582 30.90660396 79912.7</gx:coord>
          <gx:coord>131.54733601 30.90373104 79928.0</gx:coord>
          <gx:coord>131.55108590 30.90085791 79933.8</gx:coord>
          <gx:coord>131.55483548 30.89798457 79930.1</gx:coord>
          <gx:coord>131.55858478 30.89511102 79916.8</gx:coord>
          <gx:coord>131.56233381 30.89223727 79894.1</gx:coord>
          <gx:coord>131.56608259 30.88936333 79861.8</gx:coord>
          <gx:coord>131.56983111 30.88648919 79820.1</gx:coord>
          <gx:coord>131.57357940 30.88361484 79768.8</gx:coord>
          <gx:coord>131.57732747 30.88074028 79708.0</gx:coord>
          <gx:coord>131.58107533 30.87786552 79637.7</gx:coord>
          <gx:coord>131.58482298 30.87499055 79558.0</gx:coord>
          <gx:coord>131.58857045 30.87211538 79468.7</gx:coord>
          <gx:coord>131.59231774 30.86924003 79369.8</gx:coord>
          <gx:coord>131.59606486 30.86636449 79261.5</gx:coord>
          <gx:coord>131.59981184 30.86348877 79143.7</gx:coord>
          <gx:coord>131.60355868 30.86061285 79016.3</gx:coord>
          <gx:coord>131.60730538 30.85773674 78879.5</gx:coord>
          <gx:coord>131.61105197 30.85486043 78733.1</gx:coord>
          <gx:coord>131.61479844 30.85198393 78577.3</gx:coord>
          <gx:coord>131.61854481 30.84910726 78411.9</gx:coord>
          <gx:coord>131.62229109 30.84623042 78237.0</gx:coord>
          <gx:coord>131.62603730 30.84335342 78052.6</gx:coord>
          <gx:coord>131.62978345 30.84047626 77858.7</gx:coord>
          <gx:coord>131.63352954 30.83759893 77655.3</gx:coord>
          <gx:coord>131.63727559 30.83472142 77442.3</gx:coord>
          <gx:coord>131.64102160 30.83184374 77219.9</gx:coord>
          <gx:coord>131.64476757 30.82896591 76987.9</gx:coord>
          <gx:coord>131.64851352 30.82608793 76746.4</gx:coord>
          <gx:coord>131.65225945 30.82320983 76495.4</gx:coord>
          <gx:coord>131.65600540 30.82033161 76234.9</gx:coord>
          <gx:coord>131.65975137 30.81745328 75964.9</gx:coord>
          <gx:coord>131.66349736 30.81457482 75685.3</gx:coord>
          <gx:coord>131.66724337 30.81169624 75396.2</gx:coord>
          <gx:coord>131.67098941 30.80881753 75097.7</gx:coord>
          <gx:coord>131.67473546 30.80593872 74789.6</gx:coord>
          <gx:coord>131.67848154 30.80305983 74471.9</gx:coord>
          <gx:coord>131.68222766 30.80018090 74144.8</gx:coord>
          <gx:coord>131.68597386 30.79730195 73808.1</gx:coord>
          <gx:coord>131.68972015 30.79442297 73461.9</gx:coord>
          <gx:coord>131.69346650 30.79154395 73106.2</gx:coord>
          <gx:coord>131.69721292 30.78866489 72740.9</gx:coord>
          <gx:coord>131.70095938 30.78578581 72366.2</gx:coord>
          <gx:coord>131.70470586 30.78290673 71981.9</gx:coord>
          <gx:coord>131.70845236 30.78002771 71588.1</gx:coord>
          <gx:coord>131.71219892 30.77714880 71184.7</gx:coord>
          <gx:coord>131.71594556 30.77427004 70771.8</gx:coord>
          <gx:coord>131.71969229 30.77139143 70349.4</gx:coord>
          <gx:coord>131.72343908 30.76851297 69917.5</gx:coord>
          <gx:coord>131.72718590 30.76563464 69476.0</gx:coord>
          <gx:coord>131.73093269 30.76275648 69025.1</gx:coord>
          <gx:coord>131.73467939 30.75987853 68564.5</gx:coord>
          <gx:coord>131.73842594 30.75700086 68094.5</gx:coord>
          <gx:coord>131.74217237 30.75412358 67614.9</gx:coord>
          <gx:coord>131.74591871 30.75124677 67125.7</gx:coord>
          <gx:coord>131.74966498 30.74837048 66627.1</gx:coord>
          <gx:coord>131.75341112 30.74549469 66118.8</gx:coord>
          <gx:coord>131.75715702 30.74261939 65601.1</gx:coord>
          <gx:coord>131.76090256 30.73974457 65073.9</gx:coord>
          <gx:coord>131.76464754 30.73687027 64537.1</gx:coord>
          <gx:coord>131.76839176 30.73399656 63990.7</gx:coord>
          <gx:coord>131.77213508 30.73112355 63434.9</gx:coord>
          <gx:coord>131.77587744 30.72825144 62869.4</gx:coord>
          <gx:coord>131.77961882 30.72538035 62294.4</gx:coord>
          <gx:coord>131.78335913 30.72251029 61709.9</gx:coord>
          <gx:coord>131.78709819 30.71964117 61115.8</gx:coord>
          <gx:coord>131.79083578 30.71677286 60512.3</gx:coord>
          <gx:coord>131.79457155 30.71390521 59899.3</gx:coord>
          <gx:coord>131.79830505 30.71103800 59276.8</gx:coord>
          <gx:coord>131.80203576 30.70817098 58644.8</gx:coord>
          <gx:coord>131.80576318 30.70530397 58003.4</gx:coord>
          <gx:coord>131.80948693 30.70243689 57352.4</gx:coord>
          <gx:coord>131.81320681 30.69956971 56692.1</gx:coord>
          <gx:coord>131.81692288 30.69670237 56022.4</gx:coord>
          <gx:coord>131.82063539 30.69383473 55343.4</gx:coord>
          <gx:coord>131.82434473 30.69096666 54655.2</gx:coord>
          <gx:coord>131.82805127 30.68809797 53957.9</gx:coord>
          <gx:coord>131.83175543 30.68522832 53251.6</gx:coord>
          <gx:coord>131.83545787 30.68235734 52536.4</gx:coord>
          <gx:coord>131.83915939 30.67948484 51812.4</gx:coord>
          <gx:coord>131.84286082 30.67661104 51079.6</gx:coord>
          <gx:coord>131.84656267 30.67373682 50338.3</gx:coord>
          <gx:coord>131.85026492 30.67086359 49588.3</gx:coord>
          <gx:coord>131.85396694 30.66799283 48829.8</gx:coord>
          <gx:coord>131.85766780 30.66512576 48062.7</gx:coord>
          <gx:coord>131.86136671 30.66226351 47287.1</gx:coord>
          <gx:coord>131.86506293 30.65940765 46503.0</gx:coord>
          <gx:coord>131.86875515 30.65656010 45710.5</gx:coord>
          <gx:coord>131.87244120 30.65372206 44909.7</gx:coord>
          <gx:coord>131.87611897 30.65089305 44100.7</gx:coord>
          <gx:coord>131.87978796 30.64807138 43283.8</gx:coord>
          <gx:coord>131.88344932 30.64525612 42459.1</gx:coord>
          <gx:coord>131.88710321 30.64244803 41626.9</gx:coord>
          <gx:coord>131.89074759 30.63964793 40787.5</gx:coord>
          <gx:coord>131.89438054 30.63685636 39941.4</gx:coord>
          <gx:coord>131.89800056 30.63407538 39088.6</gx:coord>
          <gx:coord>131.90160357 30.63130657 38229.1</gx:coord>
          <gx:coord>131.90518465 30.62854707 37363.1</gx:coord>
          <gx:coord>131.90874328 30.62579350 36491.4</gx:coord>
          <gx:coord>131.91228253 30.62304522 35614.8</gx:coord>
          <gx:coord>131.91581102 30.62030153 34734.1</gx:coord>
          <gx:coord>131.91934146 30.61757037 33849.4</gx:coord>
          <gx:coord>131.92287050 30.61487014 32960.8</gx:coord>
          <gx:coord>131.92637802 30.61221325 32068.2</gx:coord>
          <gx:coord>131.92983666 30.60959379 31170.7</gx:coord>
          <gx:coord>131.93323033 30.60698129 30269.3</gx:coord>
          <gx:coord>131.93658077 30.60435061 29367.0</gx:coord>
          <gx:coord>131.93994114 30.60171094 28465.0</gx:coord>
          <gx:coord>131.94332940 30.59912102 27562.6</gx:coord>
          <gx:coord>131.94668559 30.59661592 26657.0</gx:coord>
          <gx:coord>131.94993645 30.59414011 25747.7</gx:coord>
          <gx:coord>131.95312135 30.59161832 24839.4</gx:coord>
          <gx:coord>131.95635681 30.58909610 23933.9</gx:coord>
          <gx:coord>131.95960338 30.58667834 23026.9</gx:coord>
          <gx:coord>131.96271948 30.58429978 22115.8</gx:coord>
          <gx:coord>131.96579982 30.58185820 21206.9</gx:coord>
          <gx:coord>131.96895173 30.57947726 20299.4</gx:coord>
          <gx:coord>131.97199381 30.57716992 19387.0</gx:coord>
          <gx:coord>131.97500560 30.57480269 18476.1</gx:coord>
          <gx:coord>131.97805233 30.57251382 17564.2</gx:coord>
          <gx:coord>131.98099595 30.57022737 16649.3</gx:coord>
          <gx:coord>131.98397864 30.56795691 15735.3</gx:coord>
          <gx:coord>131.98688364 30.56571902 14818.6</gx:coord>
          <gx:coord>131.98979913 30.56349809 13902.8</gx:coord>
          <gx:coord>131.99265574 30.56129720 12986.8</gx:coord>
          <gx:coord>131.99549370 30.55913377 12072.3</gx:coord>
          <gx:coord>131.99829297 30.55699040 11160.9</gx:coord>
          <gx:coord>132.00104538 30.55488214 10253.7</gx:coord>
          <gx:coord>132.00375317 30.55281186 9352.7</gx:coord>
          <gx:coord>132.00641114 30.55078051 8459.3</gx:coord>
          <gx:coord>132.00901431 30.54879141 7575.0</gx:coord>
          <gx:coord>132.01155865 30.54684786 6701.6</gx:coord>
          <gx:coord>132.01404041 30.54495282 5840.4</gx:coord>
          <gx:coord>132.01645602 30.54310898 4993.0</gx:coord>
          <gx:coord>132.01880227 30.54131874 4160.7</gx:coord>
          <gx:coord>132.02107637 30.53958420 3344.8</gx:coord>
          <gx:coord>132.02327596 30.53790714 2546.5</gx:coord>
          <gx:coord>132.02539916 30.53628893 1766.8</gx:coord>
          <gx:coord>132.02744464 30.53473058 1006.5</gx:coord>
          <gx:coord>132.02941156 30.53323266 266.2</gx:coord>
          <gx:coord>132.03011283 30.53269875 -0.0</gx:coord>
        </gx:Track>
      </Placemark>
    </Folder>
    <Folder>
      <name>飛行データ (Flight Summary)</name>
      <Placemark>
        <name>S-520 Flight Data Sheet</name>
        <description>&lt;![CDATA[
&lt;h2&gt;JAXA S-520 観測ロケット&lt;/h2&gt;
&lt;h3&gt;内之浦宇宙空間観測所からの打ち上げ&lt;/h3&gt;
&lt;table border="1" cellpadding="5" cellspacing="0" style="border-collapse:collapse;"&gt;
&lt;tr style="background:#1a3366;color:white;"&gt;&lt;td colspan="2"&gt;&lt;b&gt;Launch Site&lt;/b&gt;&lt;/td&gt;&lt;/tr&gt;
&lt;tr&gt;&lt;td&gt;Site&lt;/td&gt;&lt;td&gt;内之浦宇宙空間観測所 (Uchinoura Space Center)&lt;/td&gt;&lt;/tr&gt;
&lt;tr&gt;&lt;td&gt;Organization&lt;/td&gt;&lt;td&gt;JAXA / ISAS&lt;/td&gt;&lt;/tr&gt;
&lt;tr&gt;&lt;td&gt;Coordinates&lt;/td&gt;&lt;td&gt;31.251°N, 131.0821°E&lt;/td&gt;&lt;/tr&gt;
&lt;tr&gt;&lt;td&gt;Date&lt;/td&gt;&lt;td&gt;2026-03-13 10:00 JST&lt;/td&gt;&lt;/tr&gt;
&lt;tr style="background:#1a3366;color:white;"&gt;&lt;td colspan="2"&gt;&lt;b&gt;Vehicle: S-520&lt;/b&gt;&lt;/td&gt;&lt;/tr&gt;
&lt;tr&gt;&lt;td&gt;Length&lt;/td&gt;&lt;td&gt;9.0 m&lt;/td&gt;&lt;/tr&gt;
&lt;tr&gt;&lt;td&gt;Diameter&lt;/td&gt;&lt;td&gt;520 mm&lt;/td&gt;&lt;/tr&gt;
&lt;tr&gt;&lt;td&gt;Launch Mass&lt;/td&gt;&lt;td&gt;~2,300 kg&lt;/td&gt;&lt;/tr&gt;
&lt;tr&gt;&lt;td&gt;Motor&lt;/td&gt;&lt;td&gt;Single-stage solid (143 kN, 29s burn)&lt;/td&gt;&lt;/tr&gt;
&lt;tr&gt;&lt;td&gt;Total Impulse&lt;/td&gt;&lt;td&gt;4.09 MNs&lt;/td&gt;&lt;/tr&gt;
&lt;tr style="background:#1a3366;color:white;"&gt;&lt;td colspan="2"&gt;&lt;b&gt;Flight Results (6-DOF Simulation)&lt;/b&gt;&lt;/td&gt;&lt;/tr&gt;
&lt;tr&gt;&lt;td&gt;Apogee&lt;/td&gt;&lt;td&gt;&lt;b&gt;79.9 km&lt;/b&gt;&lt;/td&gt;&lt;/tr&gt;
&lt;tr&gt;&lt;td&gt;Max Speed&lt;/td&gt;&lt;td&gt;1679 m/s (Mach 5.7)&lt;/td&gt;&lt;/tr&gt;
&lt;tr&gt;&lt;td&gt;Max Acceleration&lt;/td&gt;&lt;td&gt;385 m/s² (39.2 G)&lt;/td&gt;&lt;/tr&gt;
&lt;tr&gt;&lt;td&gt;Burnout Altitude&lt;/td&gt;&lt;td&gt;24.1 km&lt;/td&gt;&lt;/tr&gt;
&lt;tr&gt;&lt;td&gt;Flight Time&lt;/td&gt;&lt;td&gt;273 s (4.6 min)&lt;/td&gt;&lt;/tr&gt;
&lt;tr&gt;&lt;td&gt;Impact Distance&lt;/td&gt;&lt;td&gt;120 km (Pacific Ocean)&lt;/td&gt;&lt;/tr&gt;
&lt;tr&gt;&lt;td&gt;Karman Line (100km)&lt;/td&gt;&lt;td&gt;Not reached&lt;/td&gt;&lt;/tr&gt;
&lt;/table&gt;
&lt;p&gt;&lt;i&gt;6-DOF Simulation by RocketPy / Standard Atmosphere / No wind&lt;/i&gt;&lt;/p&gt;
]]&gt;</description>
        <Point>
          <altitudeMode>clampToGround</altitudeMode>
          <coordinates>131.0921,31.261000000000003,230</coordinates>
        </Point>
      </Placemark>
    </Folder>
  </Document>
</kml>