<?xml version="1.0" encoding="UTF-8"?>
<kml xmlns="http://www.opengis.net/kml/2.2" xmlns:gx="http://www.google.com/kml/ext/2.2">
    <Document id="1">
        <Style id="4">
            <LineStyle id="5">
                <color>641400F0</color>
                <colorMode>normal</colorMode>
            </LineStyle>
            <PolyStyle id="6">
                <color>641400F0</color>
                <colorMode>normal</colorMode>
                <fill>1</fill>
                <outline>1</outline>
            </PolyStyle>
        </Style>
        <open>1</open>
        <Placemark id="3">
            <name>Rocket Trajectory - Powered by RocketPy</name>
            <styleUrl>#4</styleUrl>
            <LineString id="2">
                <extrude>1</extrude>
                <altitudeMode>absolute</altitudeMode>
                <coordinates>-106.974998,32.990254,1400.0 -106.974998,32.990254,1400.0 -106.974998,32.990254,1400.0 -106.974998,32.990254,1400.0 -106.974998,32.990254,1400.0 -106.974998,32.990254,1400.0 -106.974998,32.990254,1400.0 -106.974998,32.990254,1400.0 -106.974998,32.990254,1400.0 -106.974998,32.990254,1400.0 -106.974998,32.990254,1400.0 -106.974998,32.990254,1400.0 -106.974998,32.990254,1400.0 -106.974998,32.990254,1400.0 -106.974998,32.990254,1400.0 -106.974998,32.990254,1400.0 -106.974998,32.990254000001435,1400.000001821249 -106.974998,32.99025400001439,1400.0000182873148 -106.974998,32.990254000056495,1400.000071809811 -106.974998,32.9902540001483,1400.0001884991614 -106.974998,32.990254008218436,1400.010446700769 -106.974998,32.99025401147394,1400.0145848599457 -106.974998,32.990254014609015,1400.018569955125 -106.974998,32.99025401829351,1400.0232534309903 -106.974998,32.990254021581684,1400.0274331339317 -106.974998,32.99025402525739,1400.0321054342708 -106.974998,32.99025402932677,1400.0372781389183 -106.974998,32.99025403865567,1400.0491363834603 -106.974998,32.990254049583626,1400.0630272473957 -106.974998,32.99025406212692,1400.0789714151256 -106.974998,32.9902541023075,1400.1300461574795 -106.974998,32.99025415374012,1400.1954237114292 -106.974998,32.99025418816207,1400.2391784988702 -106.974998,32.99025421160238,1400.2689741796873 -106.974998,32.99025423650233,1400.3006252728617 -106.974998,32.990254262837375,1400.3341005409316 -106.974998,32.9902543197016,1400.4063823712236 -106.974998,32.9902543820097,1400.4855840892722 -106.974998,32.99025444956377,1400.57145411099 -106.974998,32.99025450332975,1400.6397976743965 -106.974998,32.99025455983188,1400.7116192422013 -106.974998,32.99025460499744,1400.7690305536687 -106.974998,32.99025465173236,1400.8284367300505 -106.974998,32.990254700039365,1400.8898412378035 -106.974998,32.99025480137968,1401.018657964989 -106.974998,32.99025490904154,1401.1555102279433 -106.974998,32.99025502304639,1401.300425226385 -106.974998,32.99025514341604,1401.4534307453262 -106.974998,32.99025670200097,1403.4345952099482 -106.974998,32.99025702803365,1403.8490252310335 -106.97499800000122,32.990257156298505,1404.0117019711467 -106.97499800000371,32.99025728747726,1404.1777181985078 -106.97499800001123,32.99025755567328,1404.516443511903 -106.97499800002393,32.99025783556765,1404.8685823303656 -106.97499800004206,32.99025812720317,1405.234190250604 -106.97499800021664,32.99025972241576,1407.2161401313842 -106.97499800038763,32.99026077857585,1408.51624066525 -106.97499800056251,32.990261679043904,1409.619242629403 -106.97499800077539,32.99026264003435,1410.7919597239825 -106.9749980010286,32.99026366176256,1412.0346574146404 -106.97499800166491,32.990265888267494,1414.7309656199218 -106.97499800249261,32.990268360595365,1417.7104141909788 -106.97499800353287,32.99027108088905,1420.9750636057809 -106.97499800480942,32.990274051643894,1424.5270082666623 -106.97499800496045,32.99027438314514,1424.9225959871117 -106.97499800511453,32.990274717527555,1425.3214732539084 -106.97499800527163,32.990275054795084,1425.7236425795586 -106.97499800561559,32.99027578063393,1426.5886543681984 -106.97499800597383,32.990276519541446,1427.4685487560366 -106.97499800634668,32.99027727155767,1428.3633497211094 -106.97499800715137,32.990278840610344,1430.228064942299 -106.9749980080213,32.99028046435648,1432.154658295989 -106.97499800987785,32.99028371244127,1435.9987911194887 -106.97499801144454,32.99028627280993,1439.0203248580372 -106.97499801240005,32.99028776785816,1440.7812173652133 -106.97499801341071,32.99028929959451,1442.582621558346 -106.97499801447907,32.99029086821923,1444.4245528584795 -106.97499801595687,32.99029296011622,1446.8763533674457 -106.97499801754222,32.99029511495683,1449.3964612444192 -106.97499801924097,32.99029733316928,1451.9848674157965 -106.97499802197713,32.99030073661905,1455.9449924420007 -106.97499802499556,32.990304281486374,1460.054939824027 -106.97499802831989,32.990307969343654,1464.314651300446 -106.97499803197303,32.990311801612194,1468.7240633423316 -106.97499803974966,32.990319344752564,1477.3539884988838 -106.97499804624178,32.99032513918415,1483.9412335412514 -106.9749980535081,32.990331206112266,1490.8023801091322 -106.97499806159574,32.99033754615863,1497.937061162362 -106.97499807054446,32.99034415874387,1505.3446321407125 -106.97499807810263,32.99034947691559,1511.2804368171264 -106.97499808621005,32.99035495687104,1517.3792533109868 -106.97499809487626,32.99036059726542,1523.640385096391 -106.9749981041096,32.990366396801356,1530.0631657147046 -106.97499811391798,32.99037235433205,1536.6469428755106 -106.97499812430983,32.99037846894999,1543.3910496822207 -106.97499813529505,32.99038474006631,1550.294793047893 -106.97499814688584,32.990391167461134,1557.3574572468021 -106.97499816044167,32.99039846517389,1565.3604330651085 -106.97499817478283,32.99040595521697,1573.5562511438106 -106.9749981899376,32.99041363840652,1581.943798443911 -106.9749982027053,32.99041994283562,1588.8109626587318 -106.9749982160323,32.99042637218424,1595.7999284282507 -106.97499822993389,32.99043292636683,1602.9098872460368 -106.97499824442397,32.99043960504451,1610.1400361181538 -106.97499825951459,32.99044640760594,1617.4895825006065 -106.97499827933818,32.99045512751606,1626.890427667937 -106.9749983001398,32.99046403935497,1636.4768376683724 -106.9749983167287,32.990470988500014,1643.9385011844313 -106.97499833390079,32.990478047577454,1651.5071706464628 -106.97499835165995,32.99048521564825,1659.182092487372 -106.97499837001091,32.99049249197355,1666.9625036925688 -106.97499838895979,32.99049987604456,1674.8476304927717 -106.97499841210758,32.9905087305826,1684.2890435016907 -106.97499843611585,32.990517734933476,1693.8742939647211 -106.97499845587221,32.99052501630276,1701.6134031864744 -106.97499847619731,32.99053239322036,1709.44296627112 -106.97499849710134,32.99053986578318,1717.3626536361035 -106.97499851859352,32.9905474338921,1725.3721128169987 -106.97499854068184,32.99055509724357,1733.4709776564112 -106.97499857237571,32.99056590291368,1744.8723210309056 -106.97499859713963,32.9905742000554,1753.6132158871967 -106.97499862258205,32.99058260034784,1762.4515770125029 -106.97499864870724,32.990591103167546,1771.3869855750231 -106.97499867552,32.99059970800448,1780.4189338294773 -106.97499870302562,32.99060841432036,1789.5466413735637 -106.97499872375967,32.990614900267914,1796.3394462176977 -106.9749987448764,32.990621440689715,1803.183120203627 -106.97499874850473,32.99062255803022,1804.3516405330831 -106.97499875214422,32.99062367692445,1805.5216019452855 -106.9749987557948,32.9906247973597,1806.6929902684687 -106.97499876092546,32.990626368911784,1808.3356988307112 -106.97499876607775,32.99062794340949,1809.9811213141074 -106.97499877125155,32.9906295208078,1811.6292083146257 -106.97499878758632,32.99063447706379,1816.8051703239203 -106.97499880412747,32.990639459736194,1822.0050670308349 -106.97499882087169,32.990644467433945,1827.227410260999 -106.97499884573985,32.99065183946484,1834.908803075382 -106.97499887102248,32.99065925712954,1842.629926026895 -106.9749988908351,32.99066501747376,1848.6206319796424 -106.97499891088125,32.99067080017959,1854.6300365335549 -106.97499893115408,32.99067660299062,1860.655838687689 -106.97499895950845,32.99068464515197,1868.9997508627587 -106.97499898826399,32.9906927160151,1877.3651176391002 -106.97499901739943,32.99070080927913,1885.745488755517 -106.97499902140012,32.99070191414021,1886.888913845132 -106.97499902540746,32.99070301929502,1888.0324913637555 -106.97499902942138,32.99070412473448,1889.176211633267 -106.97499903420206,32.990705439339926,1890.5361434274155 -106.97499903899197,32.99070675432384,1891.8962516784104 -106.97499904379109,32.99070806967452,1893.2565239811076 -106.97499905901331,32.99071222764697,1897.5550774226176 -106.97499907432568,32.99071638878321,1901.854734947714 -106.974999089727,32.99072055274798,1906.155134722481 -106.97499911578909,32.99072755120333,1913.3779559958962 -106.97499911939097,32.99072851375988,1914.3708833491403 -106.97499912299739,32.99072947641273,1915.3637912419683 -106.97499912660835,32.99073043915799,1916.3566754465628 -106.97499913384387,32.99073236491678,1918.3423627824714 -106.97499914109744,32.990734291016516,1920.3279233282426 -106.97499914836904,32.99073621744103,1922.3133386762934 -106.97499915565858,32.9907381441781,1924.2985946946883 -106.97499917619396,32.99074354829764,1929.864266549615 -106.97499919686932,32.99074895447216,1935.4282369443918 -106.97499921768379,32.990754362433314,1940.9902180739139 -106.97499925321439,32.990763515615356,1950.3953695655696 -106.97499928913413,32.99077267150417,1959.7923921856498 -106.97499931633251,32.99077954102116,1966.8357092467625 -106.97499934374385,32.990786410601075,1973.8730364130704 -106.9749993713651,32.9907932795731,1980.9037323234668 -106.97499942233489,32.99080581899166,1993.7229968891245 -106.97499946080563,32.99081517051463,2003.2703676841243 -106.97499949964218,32.99082451592272,2012.800548340955 -106.97499953883685,32.99083385370104,2022.3119676766769 -106.97499957838242,32.99084318240609,2031.8030816131916 -106.97499961827177,32.99085250061631,2041.2723496673348 -106.97499965849765,32.99086180690023,2050.7182325898852 -106.97499968919064,32.99086884811077,2057.8575183441612 -106.97499969535163,32.990870255379015,2059.2836048533977 -106.97499970152006,32.99087166231608,2060.7090949805392 -106.97499970769589,32.990873068922106,2062.133989017652 -106.97499972006983,32.990875881142124,2064.9819910430056 -106.9749997324734,32.99087869204071,2067.8276141081274 -106.97499974490657,32.99088150161956,2070.6708617848135 -106.9749997799982,32.99088938868848,2078.6469112759814 -106.97499981532216,32.990897265377924,2086.6043274368226 -106.97499985087754,32.990905131712324,2094.5431895095076 -106.97499990823678,32.990917694519204,2107.205075466827 -106.97499996618194,32.99093023106852,2119.8199943972995 -106.97500001030454,32.99093967642558,2129.3108571938137 -106.97500005475743,32.99094910711566,2138.7753027804956 -106.97500009953963,32.99095852331291,2148.2134655071623 -106.97500014465042,32.99096792520573,2157.6254787924254 -106.97500020649211,32.99098068193028,2170.3768866296177 -106.97500025723505,32.99099103832649,2180.7127255518753 -106.97500030837627,32.991001377854595,2191.0171629803276 -106.9750003599141,32.991011700616745,2201.2903729986424 -106.97500041184662,32.99102200668415,2211.532527843306 -106.97500046972786,32.99103338325062,2222.8218301282536 -106.97500052808623,32.991044739605385,2234.0735963114057 -106.97500058691915,32.99105607591523,2245.288043643766 -106.9750006462244,32.99106739237969,2256.4653621894136 -106.97500072016982,32.99108135135588,2270.228411065968 -106.97500079483065,32.99109528074994,2283.935276824051 -106.9750008532631,32.991106070625655,2294.534053856419 -106.975000912123,32.99111684299113,2305.0992593127908 -106.97500097140822,32.991127597885665,2315.63101672041 -106.97500103111615,32.99113833531229,2326.1294509744935 -106.97500109124405,32.9911490552838,2336.5946843555403 -106.97500116062687,32.991161312492956,2348.540851518802 -106.97500123055396,32.99117354702239,2360.4437948217983 -106.97500130102249,32.991185759072074,2372.303689315906 -106.97500137203009,32.99119794887053,2384.1207083453382 -106.97500145222386,32.99121158003216,2397.309651002007 -106.97500153308835,32.991225183798214,2410.445229100463 -106.97500161461986,32.99123876034978,2423.5276813686833 -106.97500169681412,32.99125230980418,2436.557244970303 -106.97500177966647,32.991265832249205,2449.5341551151896 -106.97500186317208,32.99127932778575,2462.458644551492 -106.97500194732642,32.99129279656114,2475.33094316745 -106.97500203212539,32.99130623878066,2488.151277869806 -106.97500211756545,32.99131965469429,2500.9198727787902 -106.9750022036434,32.99133304456631,2513.636949648127 -106.97500232207322,32.991351266266314,2530.899887808666 -106.97500241197532,32.99136494828774,2543.8291101459563 -106.97500250253762,32.99137860355538,2556.7048271363074 -106.97500259375589,32.99139223218327,2569.527270724577 -106.97500268562557,32.991405834270985,2582.2966708322483 -106.975002797232,32.99142219622293,2597.6197430941643 -106.97500288642583,32.99143514813067,2609.720341564958 -106.97500297620142,32.991448076278225,2621.773086079185 -106.975003066555,32.991460980892654,2633.7781678517986 -106.97500315748363,32.991473862202774,2645.7357765257325 -106.9750032770853,32.99149064841897,2661.279386152606 -106.97500336826714,32.991503328943345,2672.991933145783 -106.97500346000571,32.991515987182964,2684.658701218946 -106.97500355229839,32.991528623224625,2696.2798792938834 -106.97500364514117,32.99154123716164,2707.8556601287637 -106.9750037639469,32.99155723997049,2722.5052714115586 -106.97500386041756,32.99157012308739,2734.2695216474726 -106.97500395745057,32.99158298357312,2745.9867403453713 -106.9750040550426,32.99159582168164,2757.657140984059 -106.97500415319166,32.99160863766192,2769.2809327684986 -106.975004281361,32.99162523274074,2784.292746074067 -106.97500438614362,32.991638683876864,2796.4277041602627 -106.97500449154059,32.991652111086914,2808.5116694361864 -106.97500459754873,32.99166551449684,2820.5448749158872 -106.9750047041636,32.991678894236266,2832.5275504328415 -106.97500485817787,32.99169804975117,2849.631838970518 -106.97500497388262,32.99171231014775,2862.32598438562 -106.97500509026246,32.99172654420778,2874.963122893314 -106.97500520731316,32.99174075223563,2887.543517811759 -106.97500532503219,32.99175493453005,2900.0674289473027 -106.97500546680801,32.99177187600912,2914.983538146169 -106.9750055839293,32.99178575927778,2927.170925018397 -106.97500570169045,32.9917996183419,2939.3045382264463 -106.97500582008784,32.99181345333024,2951.384612788488 -106.9750059391165,32.99182726437345,2963.4113805627185 -106.97500608488438,32.9918440480385,2977.983041978831 -106.97500620670318,32.991857967319255,2990.0313324005924 -106.97500632914962,32.991871862755424,3002.025805166435 -106.97500645221987,32.99188573461681,3013.966685646561 -106.97500657591165,32.99189958316864,3025.854196530072 -106.97500673387832,32.99191713583051,3040.8732482382575 -106.97500686173545,32.99193123557113,3052.898739226485 -106.9750069902365,32.99194531160835,3064.869235051382 -106.97500711937795,32.9919593640653,3076.78496287485 -106.9750072491548,32.9919733930622,3088.646147105847 -106.97500742230528,32.99199196998708,3104.2990828053894 -106.97500755600709,32.99200620725004,3116.25407229379 -106.97500769034797,32.99202042082021,3128.1532053722294 -106.97500782532371,32.99203461096389,3139.9967042181197 -106.9750079609317,32.992048777947055,3151.784787997726 -106.975008145862,32.99206795575809,3167.6845758571335 -106.97500828884006,32.99208267305948,3179.8410829156965 -106.97500843249942,32.99209736588333,3191.9381157357084 -106.9750085768364,32.99211203436607,3203.9759109870834 -106.97500872184553,32.992126678636225,3215.9547026064492 -106.97500892086549,32.99214663022692,3232.211715035515 -106.97500907328958,32.99216179841754,3244.5222513817016 -106.97500922641694,32.99217694113031,3256.7698250627827 -106.97500938024231,32.992192058652826,3268.9546827322747 -106.97500953476211,32.99220715127864,3281.077067838113 -106.97500974254658,32.99222730231745,3297.196001391548 -106.97500990468824,32.992242914343414,3309.631768350394 -106.97501006757028,32.9922585003304,3322.001041072129 -106.97501023118821,32.9922740604376,3334.304079748597 -106.97501039553588,32.992289594818324,3346.541141424791 -106.97501062497156,32.9923111259506,3363.4264740690605 -106.97501080560373,32.99232795297261,3376.561344114703 -106.97501098707016,32.99234475043347,3389.6192041361423 -106.97501116936382,32.9923615186816,3402.6003618320096 -106.97501135247964,32.99237825807177,3415.505119489726 -106.9750116372036,32.99240408262103,3435.307358422668 -106.97501182216885,32.99242072951732,3448.0034164353156 -106.97501200794002,32.992437348560756,3460.6242926637196 -106.97501219451127,32.99245393993049,3473.1702685972755 -106.97501238187512,32.992470503800504,3485.6416224763884 -106.97501262803505,32.99249211993227,3501.835812915278 -106.97501282002216,32.992508867003956,3514.3188524173765 -106.9750130127981,32.992525586584485,3526.7259515051273 -106.9750132063564,32.99254227899031,3539.0573832312807 -106.97501340069192,32.992558944533464,3551.3134172159894 -106.97501365427203,32.9925805520822,3567.120883104213 -106.97501385941902,32.9925979201413,3579.758695445013 -106.97501406540079,32.992615259681706,3592.31497716125 -106.97501427221091,32.99263257090033,3604.7900223976385 -106.97501447984158,32.99264985399049,3617.184121463442 -106.97501475866576,32.99267291425526,3633.626459220075 -106.9750149881636,32.99269177002757,3646.990182570772 -106.97501521861008,32.99271059311274,3660.257972982384 -106.97501544999591,32.9927293839165,3673.430187193672 -106.97501568231331,32.992748142836376,3686.5071770278123 -106.9750159670246,32.99277098863915,3702.3344355499935 -106.97501625310053,32.99279378808871,3718.0210692905475 -106.97501654052819,32.99281654168426,3733.567691595164 -106.97501682929267,32.99283924987649,3748.9749061317775 -106.97501711937672,32.99286191311396,3764.243306212181 -106.9750174107616,32.99288453188955,3779.373474109692 -106.97501770342862,32.99290710676389,3794.365981132643 -106.97501799736052,32.99292963835353,3809.221387690361 -106.97501829254247,32.992952127291886,3823.940244435297 -106.97501858896176,32.99297457418049,3838.5230933590933 -106.97501888660686,32.992996979551876,3852.970468451812 -106.97501918546601,32.993019343860254,3867.2828963898314 -106.975019485526,32.99304166750151,3881.460896052412 -106.97501978677153,32.993063950854186,3895.504978021067 -106.97502008918553,32.99308619432386,3909.415644008675 -106.97502039275014,32.99310839837227,3923.1933861859898 -106.97502065092884,32.99312718746106,3934.767332315257 -106.97502090991124,32.993145948995284,3946.2464561339666 -106.97502116968981,32.99316468328577,3957.6310202530403 -106.97502147357801,32.99318649254934,3970.7857970806667 -106.97502177852803,32.99320826560867,3983.812794600253 -106.97502208452734,32.993230002926836,3996.712491248517 -106.975022391564,32.99325170487754,4009.4853210927486 -106.97502269962533,32.99327337179773,4022.1317014852048 -106.97502300869733,32.99329500402468,4034.6520433791084 -106.97502331876507,32.99331660191906,4047.0467527985024 -106.975023667789,32.9933407917288,4060.8030543360724 -106.97502401802565,32.993364939428844,4074.402291745511 -106.97502436945506,32.9933890456482,4087.845009502299 -106.9750247220589,32.99341311101397,4101.131742080726 -106.97502522806228,32.99344743929368,4119.8534697363 -106.97502561410663,32.99347347004358,4133.867964553678 -106.97502600146791,32.993499454847225,4147.700586570028 -106.97502639012431,32.99352539428574,4161.351969984934 -106.9750267800525,32.99355128891923,4174.822737458386 -106.97502737809668,32.993590759835534,4195.053087202148 -106.97502778442082,32.99361741380283,4208.506469852414 -106.97502819200888,32.99364402224231,4221.7690946958455 -106.97502860083445,32.99367058589958,4234.8415864492445 -106.97502901087286,32.993697105518045,4247.724557623716 -106.97502956233241,32.99373258339319,4264.696115031786 -106.97502964887127,32.99373813167041,4267.322926695543 -106.97502973546098,32.99374367808375,4269.941457593807 -106.97502982210138,32.99374922263798,4272.551712619586 -106.97502999553305,32.99376030619625,4277.747422752074 -106.97503016916475,32.99377138238185,4282.9100943978765 -106.9750303429948,32.9937824512342,4288.039767842074 -106.97503077034165,32.993809579411355,4300.486580114488 -106.97503119884587,32.993836664256186,4312.73555470381 -106.97503162847822,32.993863706406756,4324.787314106887 -106.97503205921005,32.993890706493275,4336.642442240102 -106.97503265731298,32.99392801943223,4352.732154857266 -106.97503325739497,32.993965254728415,4368.447512866925 -106.975033859385,32.99400241412919,4383.78992219388 -106.97503446321481,32.99403949931898,4398.7607564676855 -106.97503506881769,32.99407651187232,4413.361358493936 -106.9750356761268,32.99411345324751,4427.5930338943435 -106.97503628507368,32.994150324816516,4441.457047461602 -106.9750368955878,32.99418712791257,4454.954624227454 -106.97503767059887,32.994233622398355,4471.518055171021 -106.97503844785851,32.994280012005255,4487.498442746196 -106.97503922722065,32.99432629943418,4502.898023142215 -106.97504000854101,32.99437248732678,4517.718944312299 -106.97504076915946,32.99441725567745,4531.562159222167 -106.97504137997147,32.99445307445653,4542.266482164045 -106.97504199173447,32.9944888368343,4552.62341284243 -106.97504260438109,32.99452454376014,4562.633826334499 -106.97504321784291,32.99456019613215,4572.298571837589 -106.97504392604489,32.994601234356196,4583.013449880193 -106.97504463513033,32.99464220244684,4593.271165350158 -106.9750453449895,32.994683101562295,4603.072888416534 -106.97504605551158,32.99472393279164,4612.419749081756 -106.97504676658521,32.994764697149186,4621.312840822798 -106.97504775862217,32.99482141802895,4632.955667918227 -106.97504875120731,32.994878012870686,4643.721355664466 -106.97504974403132,32.99493448343174,4653.6125417553285 -106.97505073678123,32.99499083108087,4662.631765453745 -106.97505172914053,32.99504705685595,4670.7814858254915 -106.97505272079044,32.99510316156272,4678.064100002734 -106.97505371141203,32.995159145916176,4684.481962214976 -106.97505451517944,32.99520453738708,4689.060609670927 -106.97505531789368,32.99524985054404,4693.071366568398 -106.97505611939418,32.99529508623209,4696.515488742852 -106.9750569195279,32.99534024567623,4699.394246765837 -106.97505757825186,32.99537743160078,4701.343841213894 -106.97505823587565,32.99541456819656,4702.910551114974 -106.97505889233406,32.99545165723781,4704.095129689098 -106.97505954757166,32.99548870102073,4704.898341314805 -106.97506020154492,32.99552570248789,4705.320953108335 -106.97506060162662,32.995548355653135,4705.392177221986 -106.9750606314684,32.99555004588991,4705.3917784430005 -106.97506065067012,32.99555113353415,4705.390938003005 -106.97506066987071,32.99555222114768,4705.3897690021795 -106.97506070826964,32.99555439631365,4705.386773914139 -106.97506074666404,32.995556571357824,4705.3824647240235 -106.97506078505393,32.99555874628122,4705.376841572608 -106.97506116870366,32.99558048910083,4705.248371238115 -106.97506155190081,32.9956022210426,4704.988650694768 -106.97506193464736,32.99562394330044,4704.597796622846 -106.9750623169473,32.995645657179416,4704.075905310827 -106.97506285103665,32.995676022953056,4703.1260309594745 -106.97506338428026,32.99570637900058,4701.919900965495 -106.97506391669322,32.99573672914317,4700.457413633374 -106.97506444827988,32.99576707660939,4698.738260126779 -106.9750649790226,32.995797423416995,4696.761896733425 -106.97506551496824,32.995828119287935,4694.5002831711 -106.9750655639844,32.99583092961171,4694.279399637685 -106.97506561266556,32.99583372120861,4694.058285378291 -106.97506570936481,32.99583926734334,4693.615586757865 -106.97506580475198,32.99584474014234,4693.171930749153 -106.97506589885441,32.99585014114085,4692.7272839856405 -106.9750663543501,32.99587631259401,4690.470621164925 -106.97506678094415,32.99590086948292,4688.1845987364595 -106.97506718119428,32.99592395518553,4685.866710524821 -106.97506755730927,32.99594569347172,4683.515159151439 -106.97506808454794,32.99597624901043,4679.891781819736 -106.97506856645371,32.99600427529207,4676.186741373784 -106.97506900762788,32.996030029617124,4672.400083198235 -106.97506941198613,32.99605373071671,4668.53328153642 -106.97506978284804,32.99607556379516,4664.589071137502 -106.97507034893391,32.99610910618655,4657.656468193254 -106.9750708371885,32.996138306131385,4650.528534590752 -106.97507125795501,32.99616373830775,4643.22862489267 -106.9750716198676,32.99618588180418,4635.780703322692 -106.9750719304242,32.99620515243433,4628.2074428549595 -106.97507219618447,32.996221913935614,4620.529421328552 -106.97507254385384,32.99624439704588,4608.005120742136 -106.97507281035922,32.9962623161139,4595.320190629649 -106.97507301200163,32.996276577535255,4582.523182052722 -106.97507316196209,32.99628791579422,4569.649966653747 -106.97507327084102,32.996296922994645,4556.726502792017 -106.9750733548416,32.99630487054578,4542.12243267875 -106.97507340692313,32.99631099356333,4527.496087643319 -106.97507343448507,32.99631570903419,4512.859468565801 -106.97507344322838,32.996319339345945,4498.220429937309 -106.97507343754035,32.99632213349364,4483.584003573231 -106.97507341431644,32.996324806037904,4464.741122615479 -106.97507337802253,32.99632671198356,4445.911897505761 -106.97507333248626,32.99632807128375,4427.098754066747 -106.97507328042282,32.9963290407617,4408.302966153918 -106.97507322375269,32.9963297319433,4389.5250889908075 -106.97507314194463,32.99633036199976,4364.1031821107545 -106.97507305645077,32.99633076037085,4338.715262308947 -106.97507296873906,32.9963310138106,4313.361427741027 -106.97507287967056,32.9963311737747,4288.041553499942 -106.97507277094303,32.996331292283294,4257.457626243838 -106.97507266161547,32.99633135743214,4226.9232173225155 -106.97507255209217,32.996331393798336,4196.4381836696275 -106.97507243894972,32.99633141571221,4164.988796604122 -106.97507232594415,32.99633142842701,4133.591627272784 -106.97507221313309,32.99633143571113,4102.246450580829 -106.9750721007655,32.99633143984955,4071.0127044031346 -106.97507198864572,32.99633144221061,4039.8303825505127 -106.97507187678416,32.99633144355777,4008.6992771297087 -106.97507176546092,32.99633144432069,3977.69579893602 -106.9750716544019,32.9963314447497,3946.7428476253203 -106.97507154360773,32.99633144498693,3915.8402236646184 -106.97507145990157,32.99633144509108,3892.47722740497 -106.97507137634678,32.99633144515591,3869.1428846656386 -106.97507129294287,32.99633144519263,3845.8371052226025 -106.97507118136627,32.996331445214004,3814.63772766935 -106.97507107005862,32.9963314452163,3783.4893214494045 -106.9750709590185,32.996331445208874,3752.391682714247 -106.97507068257983,32.9963314451723,3674.868465064998 -106.97507040778109,32.9963314451461,3597.6581270416923 -106.97506989970812,32.99633144504658,3454.520789534388 -106.97506939711364,32.99633144494455,3312.4407267073193 -106.97506889985814,32.99633144485347,3171.398755230687 -106.97506840780687,32.996331444767904,3031.376202469978 -106.97506744248754,32.9963314445996,2755.3728836578034 -106.97506649635464,32.996331444432556,2483.2097374632467 -106.97506556850655,32.99633144426917,2214.7586355473522 -106.97506551800392,32.996331444260306,2200.103529504392 -106.97506551063738,32.99633144425902,2197.9654846496214 -106.97506550327196,32.99633144425774,2195.827670565312 -106.9750654251909,32.9963314442441,2173.159310554526 -106.97506542507689,32.99633144424408,2173.1262000609413 -106.97506542496359,32.99633144424406,2173.0932964559574 -106.97506542473837,32.99633144424402,2173.0278973832865 -106.97506542451593,32.99633144424398,2172.9633034052035 -106.97506542429622,32.99633144424394,2172.899492637312 -106.97506542329793,32.996331444243765,2172.609492334004 -106.97506542235156,32.9963314442436,2172.334370414551 -106.97506542145176,32.996331444243445,2172.072498858654 -106.97506542059396,32.996331444243296,2171.822481308132 -106.97506541937061,32.99633144424308,2171.4650721355647 -106.97506541822283,32.99633144424288,2171.128532927624 -106.97506541714145,32.99633144424269,2170.8100846645325 -106.97506541611887,32.99633144424252,2170.5074115019174 -106.97506541514878,32.996331444242344,2170.218606342078 -106.9750654135692,32.996331444242074,2169.744081596544 -106.9750654121105,32.99633144424182,2169.300048345652 -106.97506541075487,32.996331444241584,2168.8811768199485 -106.97506540948858,32.996331444241356,2168.4833878788363 -106.97506540830048,32.99633144424116,2168.1033978779315 -106.9750654071814,32.99633144424096,2167.738532079418 -106.97506540548784,32.99633144424067,2167.171301470322 -106.97506540393142,32.9963314442404,2166.631118958054 -106.97506540249186,32.996331444240155,2166.1124126462605 -106.97506540115316,32.99633144423993,2165.6109325369284 -106.97506539990229,32.996331444239715,2165.1233583130766 -106.97506539872859,32.99633144423952,2164.647081684503 -106.97506539697633,32.996331444239225,2163.8977415906584 -106.97506539537149,32.99633144423898,2163.165903104453 -106.97506539389032,32.99633144423874,2162.446922371126 -106.97506539251361,32.996331444238535,2161.737404831494 -106.97506539122564,32.99633144423834,2161.0348683648144 -106.97506538951474,32.9963314442381,2160.0401549437615 -106.97506538792814,32.99633144423789,2159.05247257279 -106.97506538644159,32.996331444237704,2158.0693868200465 -106.97506538503585,32.996331444237526,2157.0893264033048 -106.97506538369556,32.99633144423737,2156.1112912401213 -106.97506538202758,32.9963314442372,2154.8390404338866 -106.97506538042838,32.99633144423705,2153.5681565394007 -106.97506537888148,32.996331444236915,2152.2980877974296 -106.97506537737458,32.996331444236795,2151.028550684495 -106.97506537580838,32.99633144423667,2149.6819886973667 -106.9750653742685,32.99633144423655,2148.335695296064 -106.97506537274822,32.996331444236446,2146.989583935452 -106.9750653712403,32.99633144423635,2145.641510116699 -106.97506536974346,32.99633144423625,2144.293554138286 -106.97506536825495,32.996331444236155,2142.945705791069 -106.97506536677263,32.99633144423607,2141.5978905237343 -106.9750653591943,32.996331444235636,2134.668610233335 -106.9750653516621,32.99633144423522,2127.7417738984727 -106.97506534414563,32.9963314442348,2120.817350758311 -106.97506532214928,32.9963314442336,2100.5521198287993 -106.97506530018553,32.9963314442324,2080.3075010034263 -106.97506527825092,32.99633144423121,2060.0834462048533 -106.97506517318894,32.99633144422549,1963.1060589367514 -106.97506506883143,32.996331444219805,1866.5967678223792 -106.97506496516925,32.996331444214185,1770.55013919727 -106.97506481460772,32.99633144420603,1630.7319957271911 -106.97506466547763,32.99633144419797,1491.8775880633816 -106.97506456701163,32.99633144419267,1400.0001053846318</coordinates>
            </LineString>
        </Placemark>
    </Document>
</kml>
